OBJECT_NAME,OBJECT_ID,EPOCH,MEAN_MOTION,ECCENTRICITY,INCLINATION,RA_OF_ASC_NODE,ARG_OF_PERICENTER,MEAN_ANOMALY,EPHEMERIS_TYPE,CLASSIFICATION_TYPE,NORAD_CAT_ID,ELEMENT_SET_NO,REV_AT_EPOCH,BSTAR,MEAN_MOTION_DOT,MEAN_MOTION_DDOT
STARLINK-37578,2026-127J,2026-07-01T21:01:34.246848,15.75250112,.00008766,53.1563,189.1451,105.9686,254.1431,0,U,69451,999,372,.94795232E-3,.147298E-2,0
STARLINK-37577,2026-127K,2026-07-01T20:41:57.792480,15.75240639,.00010719,53.1592,189.0552,131.5708,228.5404,0,U,69452,999,372,.8669021E-3,.134385E-2,0
STARLINK-37500,2026-127L,2026-07-01T17:52:46.986528,15.75308584,.00019092,53.1567,189.7477,82.6122,277.5115,0,U,69453,999,370,.15387157E-2,.242862E-2,0
STARLINK-37575,2026-127M,2026-07-01T22:07:16.022208,15.75210247,.00012468,53.1590,188.7107,59.3365,300.7778,0,U,69454,999,373,.77938665E-3,.120393E-2,0
STARLINK-37642,2026-127N,2026-07-01T17:59:19.735872,15.75297450,.00028283,53.1563,189.7766,72.7467,287.3863,0,U,69455,999,370,.16354237E-2,.258538E-2,0
STARLINK-37513,2026-127P,2026-07-01T21:25:19.675776,15.80840165,.0000833,53.1562,188.5140,80.3026,279.8091,0,U,69456,999,373,.38200569E-3,.75241E-3,0
STARLINK-37563,2026-127Q,2026-07-01T17:39:42.889248,15.75278940,.00019443,53.1588,189.6858,76.9926,283.1311,0,U,69457,999,370,.11969824E-2,.187291E-2,0
STARLINK-37565,2026-127R,2026-07-01T22:00:15.168672,15.75268463,.00009711,53.1579,188.6763,145.4103,214.6981,0,U,69458,999,373,.12700689E-2,.198949E-2,0
STARLINK-37498,2026-127S,2026-07-01T22:26:24.285984,15.75223230,.0001458,53.1564,188.7972,82.0571,278.0615,0,U,69459,999,373,.72852289E-3,.112452E-2,0
STARLINK-37384,2026-127T,2026-07-01T22:06:47.644992,15.75298111,.00009704,53.1589,188.7082,126.8739,233.2370,0,U,69460,999,373,.16941376E-2,.268145E-2,0
STARLINK-37707,2026-127U,2026-07-01T22:00:43.938144,15.75231545,.00012343,53.1584,188.6778,81.3558,278.7602,0,U,69461,999,373,.78610946E-3,.121567E-2,0
STARLINK-37525,2026-127V,2026-07-01T21:53:43.361088,15.75234283,.00009551,53.1575,188.6458,66.3540,293.7581,0,U,69462,999,373,.74809558E-3,.115589E-2,0
STARLINK-37526,2026-127W,2026-07-01T21:47:39.281856,15.75277315,.0001274,53.1567,188.6183,136.4617,223.6504,0,U,69463,999,373,.14245662E-2,.223983E-2,0
STARLINK-37574,2026-127X,2026-07-01T21:54:11.415168,15.75246000,.00007339,53.1573,188.6463,158.9239,201.1811,0,U,69464,999,373,.10634335E-2,.165653E-2,0
STARLINK-37535,2026-127Y,2026-07-01T21:47:11.219136,15.75253729,.00012811,53.1565,188.6146,107.4520,252.6641,0,U,69465,999,373,.12387033E-2,.193775E-2,0
STARLINK-37583,2026-127Z,2026-07-01T22:00:01.999584,15.75185995,.00004606,53.1586,188.2554,117.5511,85.8259,0,U,69466,999,501,.46217034E-3,.70634E-3,0
STARLINK-37546,2026-127AA,2026-07-01T21:41:07.320480,15.75192684,.00011158,53.1566,188.5848,57.8088,302.3041,0,U,69467,999,373,.31253557E-3,.4744E-3,0
STARLINK-37532,2026-127AB,2026-07-01T22:20:12.214752,15.75760594,.00030814,53.1577,188.0254,349.8209,10.2749,0,U,69468,999,374,-.17746074E-2,-.270392E-2,0
STARLINK-37708,2026-127AC,2026-07-01T12:32:27.436128,15.75312220,.00009328,53.1565,190.4714,139.9450,220.1639,0,U,69469,999,367,.79611097E-3,.123587E-2,0
STARLINK-37686,2026-127AD,2026-07-01T13:57:45.377280,15.75318595,.00013091,53.1570,190.1284,148.6546,211.4552,0,U,69470,999,368,.86022484E-3,.133792E-2,0
STARLINK-37451,2026-127AE,2026-07-01T14:34:10.397856,15.80928785,.00011705,53.1567,189.5625,169.2893,190.8155,0,U,69471,999,369,.29014692E-3,.57094E-3,0
DTC TEST OBJECT A,2026-128A,2026-07-01T21:02:45.196800,15.56539059,.00104957,54.9917,237.1329,339.2998,20.7611,0,U,69472,999,351,.37904431E-3,.27005E-3,0
DTC TEST OBJECT B,2026-128B,2026-06-27T09:02:13.824960,15.56860342,.0009934,55.0021,257.9040,325.3113,34.7274,0,U,69473,999,280,.3356545E-3,.24134E-3,0
TJS-25,2026-129A,2026-07-01T21:26:36.900960,1.00270911,.00024012,5.9687,330.2806,290.1687,101.4051,0,U,69474,999,21,0,-.357E-5,0
STARLINK-37816,2026-131A,2026-07-01T19:28:03.219168,15.80891612,.0005236,97.2831,203.9367,72.6647,287.5194,0,U,69478,999,447,.20657512E-2,.416616E-2,0
STARLINK-37878,2026-131B,2026-07-01T07:26:51.884736,15.80909294,.00017056,97.2840,203.3941,112.2434,247.9016,0,U,69479,999,439,.99940817E-3,.196503E-2,0
STARLINK-37817,2026-131C,2026-07-01T07:16:37.553088,15.80904891,.00020262,97.2834,203.4030,110.2005,249.9482,0,U,69480,999,439,.16023762E-2,.3196E-2,0
STARLINK-37727,2026-131D,2026-07-01T11:48:59.141952,15.80999504,.00019536,97.2843,203.6045,272.9692,87.1353,0,U,69481,999,442,.18214874E-2,.366898E-2,0
STARLINK-37814,2026-131E,2026-07-01T11:47:54.413664,15.80960332,.00012273,97.2841,203.6056,265.3034,94.8094,0,U,69482,999,442,.12786134E-2,.253695E-2,0
STARLINK-37869,2026-131F,2026-07-01T19:22:37.888608,15.80864723,.00033926,97.2837,203.9420,73.5517,286.6124,0,U,69483,999,447,.17246196E-2,.344382E-2,0
