STARLINK-37578          
1 69451U 26127J   26182.87609082  .00147298  00000+0  94795-3 0  9999
2 69451  53.1563 189.1451 0000876 105.9686 254.1431 15.75250112  3726
STARLINK-37577          
1 69452U 26127K   26182.86247445  .00134385  00000+0  86690-3 0  9998
2 69452  53.1592 189.0552 0001071 131.5708 228.5404 15.75240639  3726
STARLINK-37500          
1 69453U 26127L   26182.74498827  .00242862  00000+0  15387-2 0  9992
2 69453  53.1567 189.7477 0001909  82.6122 277.5115 15.75308584  3703
STARLINK-37575          
1 69454U 26127M   26182.92171322  .00120393  00000+0  77939-3 0  9997
2 69454  53.1590 188.7107 0001246  59.3365 300.7778 15.75210247  3738
STARLINK-37642          
1 69455U 26127N   26182.74953398  .00258538  00000+0  16354-2 0  9995
2 69455  53.1563 189.7766 0002828  72.7467 287.3863 15.75297450  3703
STARLINK-37513          
1 69456U 26127P   26182.89258884  .00075241  00000+0  38201-3 0  9994
2 69456  53.1562 188.5140 0000833  80.3026 279.8091 15.80840165  3731
STARLINK-37563          
1 69457U 26127Q   26182.73591307  .00187291  00000+0  11970-2 0  9990
2 69457  53.1588 189.6858 0001944  76.9926 283.1311 15.75278940  3702
STARLINK-37565          
1 69458U 26127R   26182.91684223  .00198949  00000+0  12701-2 0  9996
2 69458  53.1579 188.6763 0000971 145.4103 214.6981 15.75268463  3739
STARLINK-37498          
1 69459U 26127S   26182.93500331  .00112452  00000+0  72852-3 0  9995
2 69459  53.1564 188.7972 0001458  82.0571 278.0615 15.75223230  3734
STARLINK-37384          
1 69460U 26127T   26182.92138478  .00268145  00000+0  16941-2 0  9992
2 69460  53.1589 188.7082 0000970 126.8739 233.2370 15.75298111  3737
STARLINK-37707          
1 69461U 26127U   26182.91717521  .00121567  00000+0  78611-3 0  9993
2 69461  53.1584 188.6778 0001234  81.3558 278.7602 15.75231545  3732
STARLINK-37525          
1 69462U 26127V   26182.91230742  .00115589  00000+0  74810-3 0  9993
2 69462  53.1575 188.6458 0000955  66.3540 293.7581 15.75234283  3736
STARLINK-37526          
1 69463U 26127W   26182.90809354  .00223983  00000+0  14246-2 0  9998
2 69463  53.1567 188.6183 0001274 136.4617 223.6504 15.75277315  3732
STARLINK-37574          
1 69464U 26127X   26182.91263212  .00165653  00000+0  10634-2 0  9993
2 69464  53.1573 188.6463 0000733 158.9239 201.1811 15.75246000  3738
STARLINK-37535          
1 69465U 26127Y   26182.90776874  .00193775  00000+0  12387-2 0  9999
2 69465  53.1565 188.6146 0001281 107.4520 252.6641 15.75253729  3737
STARLINK-37583          
1 69466U 26127Z   26182.91668981  .00070634  00000+0  46217-3 0  9998
2 69466  53.1586 188.2554 0000460 117.5511  85.8259 15.75185995  5013
STARLINK-37546          
1 69467U 26127AA  26182.90355695  .00047440  00000+0  31254-3 0  9997
2 69467  53.1566 188.5848 0001115  57.8088 302.3041 15.75192684  3730
STARLINK-37532          
1 69468U 26127AB  26182.93069693 -.00270392  00000+0 -17746-2 0  9996
2 69468  53.1577 188.0254 0003081 349.8209  10.2749 15.75760594  3744
STARLINK-37708          
1 69469U 26127AC  26182.52253977  .00123587  00000+0  79611-3 0  9993
2 69469  53.1565 190.4714 0000932 139.9450 220.1639 15.75312220  3679
STARLINK-37686          
1 69470U 26127AD  26182.58177520  .00133792  00000+0  86022-3 0  9993
2 69470  53.1570 190.1284 0001309 148.6546 211.4552 15.75318595  3687
STARLINK-37451          
1 69471U 26127AE  26182.60706479  .00057094  00000+0  29015-3 0  9997
2 69471  53.1567 189.5625 0001170 169.2893 190.8155 15.80928785  3699
DTC TEST OBJECT A       
1 69472U 26128A   26182.87691200  .00027005  00000+0  37904-3 0  9998
2 69472  54.9917 237.1329 0010495 339.2998  20.7611 15.56539059  3518
DTC TEST OBJECT B       
1 69473U 26128B   26178.37654890  .00024134  00000+0  33565-3 0  9992
2 69473  55.0021 257.9040 0009934 325.3113  34.7274 15.56860342  2801
TJS-25                  
1 69474U 26129A   26182.89348265 -.00000357  00000+0  00000+0 0  9998
2 69474   5.9687 330.2806 0002401 290.1687 101.4051  1.00270911   215
STARLINK-37816          
1 69478U 26131A   26182.81114837  .00416616  00000+0  20658-2 0  9995
2 69478  97.2831 203.9367 0005236  72.6647 287.5194 15.80891612  4476
STARLINK-37878          
1 69479U 26131B   26182.31032274  .00196503  00000+0  99941-3 0  9997
2 69479  97.2840 203.3941 0001705 112.2434 247.9016 15.80909294  4391
STARLINK-37817          
1 69480U 26131C   26182.30321242  .00319600  00000+0  16024-2 0  9999
2 69480  97.2834 203.4030 0002026 110.2005 249.9482 15.80904891  4392
STARLINK-37727          
1 69481U 26131D   26182.49235118  .00366898  00000+0  18215-2 0  9991
2 69481  97.2843 203.6045 0001953 272.9692  87.1353 15.80999504  4425
STARLINK-37814          
1 69482U 26131E   26182.49160201  .00253695  00000+0  12786-2 0  9999
2 69482  97.2841 203.6056 0001227 265.3034  94.8094 15.80960332  4420
STARLINK-37869          
1 69483U 26131F   26182.80738297  .00344382  00000+0  17246-2 0  9991
2 69483  97.2837 203.9420 0003392  73.5517 286.6124 15.80864723  4471
